{
  "type": "FeatureCollection",
  "features": [
    {
      "type": "Feature",
      "properties": {
        "norad_id": 58647,
        "name": "TIANMU-1 13",
        "group": "weather",
        "lat": -19.870931707709136,
        "lon": 6.337794472486599,
        "alt_km": 495.54972775647457,
        "timestamp": "2025-12-09T23:33:23.491136+00:00",
        "meta_object_name": "TIANMU-1 13",
        "meta_object_id": "2023-205C",
        "meta_epoch": "2025-12-09T14:11:31.979040",
        "meta_mean_motion": 15.24462904,
        "meta_eccentricity": 0.00060544,
        "meta_inclination": 97.3624,
        "meta_ra_of_asc_node": 3.2759,
        "meta_arg_of_pericenter": 281.7098,
        "meta_mean_anomaly": 78.346,
        "meta_ephemeris_type": 0,
        "meta_classification_type": "U",
        "meta_norad_cat_id": 58647,
        "meta_element_set_no": 999,
        "meta_rev_at_epoch": 10859,
        "meta_bstar": 0.00037949965,
        "meta_mean_motion_dot": 9.256e-05,
        "meta_mean_motion_ddot": 0,
        "tle_line1": "1 58647U 23205C   25343.59134235  .00009256  00000+0  37950-3 0  9999",
        "tle_line2": "2 58647  97.3624   3.2759 0006054 281.7098  78.3460 15.24462904108597"
      },
      "geometry": {
        "type": "Point",
        "coordinates": [
          6.337794472486599,
          -19.870931707709136
        ]
      }
    },
    {
      "type": "Feature",
      "properties": {
        "norad_id": 58648,
        "name": "TIANMU-1 14",
        "group": "weather",
        "lat": 69.89146681797392,
        "lon": -17.650429366895906,
        "alt_km": 489.6032449687791,
        "timestamp": "2025-12-09T23:33:23.491154+00:00",
        "meta_object_name": "TIANMU-1 14",
        "meta_object_id": "2023-205D",
        "meta_epoch": "2025-12-09T13:47:34.641600",
        "meta_mean_motion": 15.24446873,
        "meta_eccentricity": 0.0006912,
        "meta_inclination": 97.3556,
        "meta_ra_of_asc_node": 2.6112,
        "meta_arg_of_pericenter": 286.901,
        "meta_mean_anomaly": 73.147,
        "meta_ephemeris_type": 0,
        "meta_classification_type": "U",
        "meta_norad_cat_id": 58648,
        "meta_element_set_no": 999,
        "meta_rev_at_epoch": 10859,
        "meta_bstar": 0.00037855925,
        "meta_mean_motion_dot": 9.23e-05,
        "meta_mean_motion_ddot": 0,
        "tle_line1": "1 58648U 23205D   25343.57470650  .00009230  00000+0  37856-3 0  9999",
        "tle_line2": "2 58648  97.3556   2.6112 0006912 286.9010  73.1470 15.24446873108593"
      },
      "geometry": {
        "type": "Point",
        "coordinates": [
          -17.650429366895906,
          69.89146681797392
        ]
      }
    },
    {
      "type": "Feature",
      "properties": {
        "norad_id": 58660,
        "name": "TIANMU-1 19",
        "group": "weather",
        "lat": -65.81558948346886,
        "lon": 111.93860684304556,
        "alt_km": 487.2684891789604,
        "timestamp": "2025-12-09T23:33:23.491177+00:00",
        "meta_object_name": "TIANMU-1 19",
        "meta_object_id": "2023-208A",
        "meta_epoch": "2025-12-09T14:25:02.436960",
        "meta_mean_motion": 15.27758449,
        "meta_eccentricity": 0.00040581,
        "meta_inclination": 97.4389,
        "meta_ra_of_asc_node": 94.6443,
        "meta_arg_of_pericenter": 267.1189,
        "meta_mean_anomaly": 92.9586,
        "meta_ephemeris_type": 0,
        "meta_classification_type": "U",
        "meta_norad_cat_id": 58660,
        "meta_element_set_no": 999,
        "meta_rev_at_epoch": 10834,
        "meta_bstar": 0.00052278564,
        "meta_mean_motion_dot": 0.00014117,
        "meta_mean_motion_ddot": 0,
        "tle_line1": "1 58660U 23208A   25343.60072265  .00014117  00000+0  52279-3 0  9996",
        "tle_line2": "2 58660  97.4389  94.6443 0004058 267.1189  92.9586 15.27758449108345"
      },
      "geometry": {
        "type": "Point",
        "coordinates": [
          111.93860684304556,
          -65.81558948346886
        ]
      }
    },
    {
      "type": "Feature",
      "properties": {
        "norad_id": 58661,
        "name": "TIANMU-1 20",
        "group": "weather",
        "lat": -4.4761010665884875,
        "lon": 96.05470705127237,
        "alt_km": 481.66778901785074,
        "timestamp": "2025-12-09T23:33:23.491195+00:00",
        "meta_object_name": "TIANMU-1 20",
        "meta_object_id": "2023-208B",
        "meta_epoch": "2025-12-09T14:09:07.028352",
        "meta_mean_motion": 15.28949446,
        "meta_eccentricity": 0.00063185,
        "meta_inclination": 97.4327,
        "meta_ra_of_asc_node": 95.0778,
        "meta_arg_of_pericenter": 279.1842,
        "meta_mean_anomaly": 80.8683,
        "meta_ephemeris_type": 0,
        "meta_classification_type": "U",
        "meta_norad_cat_id": 58661,
        "meta_element_set_no": 999,
        "meta_rev_at_epoch": 10841,
        "meta_bstar": 0.00049390712,
        "meta_mean_motion_dot": 0.00013831,
        "meta_mean_motion_ddot": 0,
        "tle_line1": "1 58661U 23208B   25343.58966468  .00013831  00000+0  49391-3 0  9994",
        "tle_line2": "2 58661  97.4327  95.0778 0006318 279.1842  80.8683 15.28949446108416"
      },
      "geometry": {
        "type": "Point",
        "coordinates": [
          96.05470705127237,
          -4.4761010665884875
        ]
      }
    },
    {
      "type": "Feature",
      "properties": {
        "norad_id": 58662,
        "name": "TIANMU-1 21",
        "group": "weather",
        "lat": -24.409617862404897,
        "lon": 100.76402042637852,
        "alt_km": 475.3116794460939,
        "timestamp": "2025-12-09T23:33:23.491212+00:00",
        "meta_object_name": "TIANMU-1 21",
        "meta_object_id": "2023-208C",
        "meta_epoch": "2025-12-09T14:15:17.618688",
        "meta_mean_motion": 15.31444075,
        "meta_eccentricity": 0.00058874,
        "meta_inclination": 97.4376,
        "meta_ra_of_asc_node": 96.9764,
        "meta_arg_of_pericenter": 273.3832,
        "meta_mean_anomaly": 86.6735,
        "meta_ephemeris_type": 0,
        "meta_classification_type": "U",
        "meta_norad_cat_id": 58662,
        "meta_element_set_no": 999,
        "meta_rev_at_epoch": 10851,
        "meta_bstar": 0.00053049063,
        "meta_mean_motion_dot": 0.00016055,
        "meta_mean_motion_ddot": 0,
        "tle_line1": "1 58662U 23208C   25343.59395392  .00016055  00000+0  53049-3 0  9994",
        "tle_line2": "2 58662  97.4376  96.9764 0005887 273.3832  86.6735 15.31444075108516"
      },
      "geometry": {
        "type": "Point",
        "coordinates": [
          100.76402042637852,
          -24.409617862404897
        ]
      }
    },
    {
      "type": "Feature",
      "properties": {
        "norad_id": 58663,
        "name": "TIANMU-1 22",
        "group": "weather",
        "lat": -62.3975088445417,
        "lon": 109.55508342919607,
        "alt_km": 488.51232742241973,
        "timestamp": "2025-12-09T23:33:23.491229+00:00",
        "meta_object_name": "TIANMU-1 22",
        "meta_object_id": "2023-208D",
        "meta_epoch": "2025-12-09T14:24:00.795744",
        "meta_mean_motion": 15.2751883,
        "meta_eccentricity": 0.00027854,
        "meta_inclination": 97.4383,
        "meta_ra_of_asc_node": 94.7041,
        "meta_arg_of_pericenter": 302.6584,
        "meta_mean_anomaly": 57.4387,
        "meta_ephemeris_type": 0,
        "meta_classification_type": "U",
        "meta_norad_cat_id": 58663,
        "meta_element_set_no": 999,
        "meta_rev_at_epoch": 10835,
        "meta_bstar": 0.00047503317,
        "meta_mean_motion_dot": 0.00012723,
        "meta_mean_motion_ddot": 0,
        "tle_line1": "1 58663U 23208D   25343.60000921  .00012723  00000+0  47503-3 0  9994",
        "tle_line2": "2 58663  97.4383  94.7041 0002785 302.6584  57.4387 15.27518830108350"
      },
      "geometry": {
        "type": "Point",
        "coordinates": [
          109.55508342919607,
          -62.3975088445417
        ]
      }
    },
    {
      "type": "Feature",
      "properties": {
        "norad_id": 58700,
        "name": "TIANMU-1 15",
        "group": "weather",
        "lat": 80.96791237429697,
        "lon": 41.015641962921116,
        "alt_km": 487.48582692727814,
        "timestamp": "2025-12-09T23:33:23.491246+00:00",
        "meta_object_name": "TIANMU-1 15",
        "meta_object_id": "2024-004A",
        "meta_epoch": "2025-12-09T15:15:54.419328",
        "meta_mean_motion": 15.24615288,
        "meta_eccentricity": 0.00053244,
        "meta_inclination": 97.463,
        "meta_ra_of_asc_node": 165.1171,
        "meta_arg_of_pericenter": 311.7302,
        "meta_mean_anomaly": 48.348,
        "meta_ephemeris_type": 0,
        "meta_classification_type": "U",
        "meta_norad_cat_id": 58700,
        "meta_element_set_no": 999,
        "meta_rev_at_epoch": 10687,
        "meta_bstar": 0.00041076168,
        "meta_mean_motion_dot": 0.00010069,
        "meta_mean_motion_ddot": 0,
        "tle_line1": "1 58700U 24004A   25343.63604652  .00010069  00000+0  41076-3 0  9995",
        "tle_line2": "2 58700  97.4630 165.1171 0005324 311.7302  48.3480 15.24615288106875"
      },
      "geometry": {
        "type": "Point",
        "coordinates": [
          41.015641962921116,
          80.96791237429697
        ]
      }
    }
  ]
}